NORAD_CAT_ID,OBJECT_NAME,OBJECT_TYPE,EPOCH,MEAN_MOTION,ECCENTRICITY,INCLINATION,RA_OF_ASC_NODE,ARG_OF_PERICENTER,MEAN_ANOMALY,BSTAR,MEAN_MOTION_DOT,MEAN_MOTION_DDOT,TLE_LINE0,TLE_LINE1,TLE_LINE2,SEMIMAJOR_AXIS,PERIOD,APOGEE,PERIGEE,DECAYED
56492.0,STARLINK-5846,PAYLOAD,2024-01-25 19:28:25,14.98331135,0.0002521,69.9998,255.6458,263.119,96.9682,-3.5294e-05,-5.14e-06,0.0,0 STARLINK-5846,1 56492U 23064AW  24025.81140819 -.00000514  00000-0 -35294-4 0  9995,2 56492  69.9998 255.6458 0002521 263.1190  96.9682 14.98331135 40670,6950.189,96.107,573.807,570.302,0.0
56492.0,STARLINK-5846,PAYLOAD,2024-01-25 22:40:41,14.98329888,0.0002548,69.9998,255.3092,264.1679,95.9189,-4.8817e-05,-6.75e-06,0.0,0 STARLINK-5846,1 56492U 23064AW  24025.94492935 -.00000675  00000-0 -48817-4 0  9991,2 56492  69.9998 255.3092 0002548 264.1679  95.9189 14.98329888 40339,6950.193,96.107,573.829,570.287,0.0
56492.0,STARLINK-5846,PAYLOAD,2024-01-26 00:16:49,14.98330197,0.0002541,69.9998,255.1409,263.748,96.3389,-4.3868e-05,-6.16e-06,0.0,0 STARLINK-5846,1 56492U 23064AW  24026.01168899 -.00000616  00000-0 -43868-4 0  9995,2 56492  69.9998 255.1409 0002541 263.7480  96.3389 14.98330197 40340,6950.192,96.107,573.823,570.291,0.0
56492.0,STARLINK-5846,PAYLOAD,2024-01-26 19:30:26,14.98332387,0.0002679,69.9998,253.1206,266.1511,93.9341,8.2791e-05,8.95e-06,0.0,0 STARLINK-5846,1 56492U 23064AW  24026.81280321  .00000895  00000-0  82791-4 0  9993,2 56492  69.9998 253.1206 0002679 266.1511  93.9341 14.98332387 40824,6950.186,96.107,573.912,570.189,0.0
56492.0,STARLINK-5846,PAYLOAD,2024-01-27 00:18:50,14.98332874,0.0002661,69.9996,252.6151,263.9086,96.177,8.6104e-05,9.35e-06,0.0,0 STARLINK-5846,1 56492U 23064AW  24027.01308230  .00000935  00000-0  86104-4 0  9993,2 56492  69.9996 252.6151 0002661 263.9086  96.1770 14.98332874 40493,6950.184,96.107,573.898,570.2,0.0
56492.0,STARLINK-5846,PAYLOAD,2024-01-27 19:32:27,14.98326229,0.000254,69.9999,250.5951,256.1257,103.962,-1.0727e-05,-2.21e-06,0.0,0 STARLINK-5846,1 56492U 23064AW  24027.81420906 -.00000221  00000-0 -10727-4 0  9994,2 56492  69.9999 250.5951 0002540 256.1257 103.9620 14.98326229 40972,6950.205,96.107,573.835,570.304,0.0
56492.0,STARLINK-5846,PAYLOAD,2024-01-27 21:08:35,14.98325647,0.0002546,70.0,250.4271,256.8909,103.1966,-1.9081e-05,-3.21e-06,0.0,0 STARLINK-5846,1 56492U 23064AW  24027.88096977 -.00000321  00000-0 -19081-4 0  9991,2 56492  70.0000 250.4271 0002546 256.8909 103.1966 14.98325647 40629,6950.206,96.107,573.841,570.302,0.0
56492.0,STARLINK-5846,PAYLOAD,2024-01-28 00:20:51,14.98326411,0.0002594,69.9998,250.09,264.9184,95.1679,-1.3162e-05,-2.5e-06,0.0,0 STARLINK-5846,1 56492U 23064AW  24028.01448974 -.00000250  00000-0 -13162-4 0  9990,2 56492  69.9998 250.0900 0002594 264.9184  95.1679 14.98326411 40648,6950.204,96.107,573.872,570.266,0.0
56492.0,STARLINK-5846,PAYLOAD,2024-01-28 19:34:28,14.98332275,0.0002592,69.9998,248.0694,266.3323,93.754,-2.8756e-05,-4.36e-06,0.0,0 STARLINK-5846,1 56492U 23064AW  24028.81560617 -.00000436  00000-0 -28756-4 0  9998,2 56492  69.9998 248.0694 0002592 266.3323  93.7540 14.98332275 41124,6950.186,96.107,573.852,570.249,0.0
56492.0,STARLINK-5846,PAYLOAD,2024-01-28 22:46:44,14.98331621,0.000261,69.9999,247.733,267.034,93.0521,-3.56e-05,-5.18e-06,0.0,0 STARLINK-5846,1 56492U 23064AW  24028.94912667 -.00000518  00000-0 -35600-4 0  9995,2 56492  69.9999 247.7330 0002610 267.0340  93.0521 14.98331621 40783,6950.188,96.107,573.867,570.239,0.0
56492.0,STARLINK-5846,PAYLOAD,2024-01-29 00:22:52,14.98332308,0.0002605,69.9999,247.5647,267.1931,92.893,-2.6715e-05,-4.12e-06,0.0,0 STARLINK-5846,1 56492U 23064AW  24029.01588594 -.00000412  00000-0 -26715-4 0  9992,2 56492  69.9999 247.5647 0002605 267.1931  92.8930 14.98332308 40798,6950.186,96.107,573.861,570.24,0.0
56492.0,STARLINK-5846,PAYLOAD,2024-01-30 00:24:53,14.98331236,0.0002732,69.9998,245.0404,267.886,92.1987,5.0078e-05,5.05e-06,0.0,0 STARLINK-5846,1 56492U 23064AW  24030.01728330  .00000505  00000-0  50078-4 0  9998,2 56492  69.9998 245.0404 0002732 267.8860  92.1987 14.98331236 41302,6950.189,96.107,573.953,570.155,0.0
56492.0,STARLINK-5846,PAYLOAD,2024-01-30 14:50:05,14.9833232,0.0002804,69.9998,243.5256,266.7522,93.3316,-1.0055e-06,-1.05e-06,0.0,0 STARLINK-5846,1 56492U 23064AW  24030.61812324 -.00000105  00000-0 -10055-5 0  9991,2 56492  69.9998 243.5256 0002804 266.7522  93.3316 14.98332320 41037,6950.186,96.107,574.0,570.102,0.0
56492.0,STARLINK-5846,PAYLOAD,2024-01-30 22:50:46,14.98333071,0.0002708,70.0,242.684,268.1748,91.9101,1.7105e-05,1.11e-06,0.0,0 STARLINK-5846,1 56492U 23064AW  24030.95192172  .00000111  00000-0  17105-4 0  9997,2 56492  70.0000 242.6840 0002708 268.1748  91.9101 14.98333071 41087,6950.183,96.107,573.931,570.166,0.0
56492.0,STARLINK-5846,PAYLOAD,2024-01-31 00:26:54,14.98333424,0.0002697,70.0001,242.516,268.0482,92.0368,2.1155e-05,1.59e-06,0.0,0 STARLINK-5846,1 56492U 23064AW  24031.01868125  .00000159  00000-0  21155-4 0  9995,2 56492  70.0001 242.5160 0002697 268.0482  92.0368 14.98333424 41453,6950.182,96.107,573.922,570.173,0.0
56492.0,STARLINK-5846,PAYLOAD,2024-02-01 00:28:55,14.9833,0.0002553,70.0004,239.9919,267.6966,92.3901,-3.2283e-05,-4.78e-06,0.0,0 STARLINK-5846,1 56492U 23064AW  24032.02008393 -.00000478  00000-0 -32283-4 0  9990,2 56492  70.0004 239.9919 0002553 267.6966  92.3901 14.98330000 41601,6950.193,96.107,573.832,570.284,0.0
56492.0,STARLINK-5846,PAYLOAD,2024-02-02 14:56:09,14.9832773,0.0002671,69.9997,235.9516,268.8193,91.266,-2.0186e-05,-3.34e-06,0.0,0 STARLINK-5846,1 56492U 23064AW  24033.62232656 -.00000334  00000-0 -20186-4 0  9998,2 56492  69.9997 235.9516 0002671 268.8193  91.2660 14.98327730 41486,6950.2,96.107,573.921,570.209,0.0
56492.0,STARLINK-5846,PAYLOAD,2024-02-02 19:44:33,14.98324866,0.0002718,70.0002,235.4464,266.5662,93.5186,6.9488e-06,-1e-07,0.0,0 STARLINK-5846,1 56492U 23064AW  24033.82260740 -.00000010  00000-0  69488-5 0  9994,2 56492  70.0002 235.4464 0002718 266.5662  93.5186 14.98324866 41879,6950.209,96.107,573.963,570.185,0.0
56492.0,STARLINK-5846,PAYLOAD,2024-02-02 21:20:41,14.98323622,0.000294,69.9996,235.2771,272.1719,87.9103,-3.5984e-06,-1.36e-06,0.0,0 STARLINK-5846,1 56492U 23064AW  24033.88936872 -.00000136  00000-0 -35984-5 0  9990,2 56492  69.9996 235.2771 0002940 272.1719  87.9103 14.98323622 41527,6950.213,96.107,574.121,570.034,0.0
56492.0,STARLINK-5846,PAYLOAD,2024-02-03 13:22:02,14.98320108,0.0002803,69.9997,233.5931,271.6973,88.3865,-1.8731e-05,-3.16e-06,0.0,0 STARLINK-5846,1 56492U 23064AW  24034.55697436 -.00000316  00000-0 -18731-4 0  9995,2 56492  69.9997 233.5931 0002803 271.6973  88.3865 14.98320108 41628,6950.223,96.108,574.037,570.14,0.0
56492.0,STARLINK-5846,PAYLOAD,2024-02-03 19:46:34,14.98320522,0.0002774,69.9998,232.9207,271.4468,88.6373,-1.0458e-05,-2.18e-06,0.0,0 STARLINK-5846,1 56492U 23064AW  24034.82401553 -.00000218  00000-0 -10458-4 0  9997,2 56492  69.9998 232.9207 0002774 271.4468  88.6373 14.98320522 42024,6950.222,96.108,574.015,570.159,0.0
56492.0,STARLINK-5846,PAYLOAD,2024-02-03 21:22:42,14.98321003,0.0002724,69.9999,232.7524,269.8162,90.2684,-1.2787e-06,-1.08e-06,0.0,0 STARLINK-5846,1 56492U 23064AW  24034.89077515 -.00000108  00000-0 -12787-5 0  9997,2 56492  69.9999 232.7524 0002724 269.8162  90.2684 14.98321003 41671,6950.221,96.108,573.979,570.192,0.0
56492.0,STARLINK-5846,PAYLOAD,2024-02-04 15:00:11,14.9832497,0.0002721,70.0,230.9014,269.4851,90.5997,3.7823e-05,3.58e-06,0.0,0 STARLINK-5846,1 56492U 23064AW  24035.62513485  .00000358  00000-0  37823-4 0  9992,2 56492  70.0000 230.9014 0002721 269.4851  90.5997 14.98324970 41787,6950.208,96.107,573.965,570.182,0.0
56492.0,STARLINK-5846,PAYLOAD,2024-02-04 19:48:35,14.9832539,0.0002714,70.0001,230.3966,269.6787,90.4061,4.1979e-05,4.08e-06,0.0,0 STARLINK-5846,1 56492U 23064AW  24035.82541519  .00000408  00000-0  41979-4 0  9996,2 56492  70.0001 230.3966 0002714 269.6787  90.4061 14.98325390 42172,6950.207,96.107,573.958,570.186,0.0
56492.0,STARLINK-5846,PAYLOAD,2024-02-04 21:24:43,14.98325417,0.0002713,70.0001,230.2283,269.7331,90.3517,4.1572e-05,4.03e-06,0.0,0 STARLINK-5846,1 56492U 23064AW  24035.89217538  .00000403  00000-0  41572-4 0  9998,2 56492  70.0001 230.2283 0002713 269.7331  90.3517 14.98325417 41824,6950.207,96.107,573.958,570.186,0.0
56492.0,STARLINK-5846,PAYLOAD,2024-02-05 13:26:04,14.98329205,0.0002751,70.0,228.546,269.6346,90.4498,7.2458e-05,7.72e-06,0.0,0 STARLINK-5846,1 56492U 23064AW  24036.55977367  .00000772  00000-0  72458-4 0  9991,2 56492  70.0000 228.5460 0002751 269.6346  90.4498 14.98329205 41926,6950.195,96.107,573.972,570.148,0.0
56492.0,STARLINK-5846,PAYLOAD,2024-02-05 19:50:36,14.98330904,0.0002714,70.0002,227.8726,270.2982,89.7866,8.998e-05,9.81e-06,0.0,0 STARLINK-5846,1 56492U 23064AW  24036.82681220  .00000981  00000-0  89980-4 0  9991,2 56492  70.0002 227.8726 0002714 270.2982  89.7866 14.98330904 42321,6950.19,96.107,573.941,570.169,0.0
56492.0,STARLINK-5846,PAYLOAD,2024-02-05 21:26:44,14.98331154,0.0002713,70.0002,227.7043,270.446,89.6388,9.0886e-05,9.92e-06,0.0,0 STARLINK-5846,1 56492U 23064AW  24036.89357198  .00000992  00000-0  90886-4 0  9991,2 56492  70.0002 227.7043 0002713 270.4460  89.6388 14.98331154 41970,6950.189,96.107,573.94,570.169,0.0
56492.0,STARLINK-5846,PAYLOAD,2024-02-06 13:28:04,14.98337245,0.0002787,70.0001,226.0215,270.8763,89.2077,7.3197e-05,7.81e-06,0.0,0 STARLINK-5846,1 56492U 23064AW  24037.56116684  .00000781  00000-0  73197-4 0  9991,2 56492  70.0001 226.0215 0002787 270.8763  89.2077 14.98337245 42073,6950.17,96.107,573.972,570.098,0.0
56492.0,STARLINK-5846,PAYLOAD,2024-02-06 19:52:36,14.98339796,0.0002735,70.0003,225.3483,270.6303,89.4543,9.9538e-05,1.095e-05,0.0,0 STARLINK-5846,1 56492U 23064AW  24037.82820304  .00001095  00000-0  99538-4 0  9997,2 56492  70.0003 225.3483 0002735 270.6303  89.4543 14.98339796 42472,6950.163,96.106,573.928,570.127,0.0
